P/2015 T3 (PANSTARRS),e,13.0937,120.5019,178.6330,4.326181,0.1095335,0.50818108,359.9227,12/21.0/2014,2000,g 14.0,4.0
# From MPC102953
C/2015 T4 (PANSTARRS),e,87.9633,251.8001,270.0568,80.48458,0.0013650,0.97146209,0.0000,06/17.5659/2016,2000,g 11.0,4.0
# From MPC102097
C/2015 T5 (Sheppard-Tholen),e,11.0491,311.0807,61.7931,28.05596,0.0066323,0.66736573,9.6372,01/14.0/2020,2000,g  7.5,4.0
# From MPC102953
P/2015 TO19 (Lemmon-PANSTARRS),e,6.4993,321.6426,89.2084,4.557845,0.1012896,0.35773752,142.7649,01/14.0/2020,2000,g 14.0,4.0
# From MPC110080
P/2015 TP200 (LINEAR),e,8.7730,6.9803,82.7321,7.283455,0.0501416,0.53493025,58.8393,01/14.0/2020,2000,g 11.0,4.0
# From MPC101097
C/2015 TQ209 (LINEAR),e,11.3094,223.4203,282.1181,709.8371,0.0000521,0.99800639,0.0000,08/26.4526/2016,2000,g 10.5,4.0
# From MPC115881
C/2015 V1 (PANSTARRS),e,139.2234,197.1875,179.6185,5031,0.0000028,0.99915171,0.0000,12/17.3940/2017,2000,g  6.5,4.0
# From MPC112390
C/2015 V2 (Johnson),h,06/12.2135/2017,49.8733,69.8558,164.9733,1.001832,1.640694,2000,5.0,4.0
# From MPC102953
C/2015 V3 (PANSTARRS),e,86.2396,2.2651,0.7098,627.6793,0.0000627,0.99325858,0.0000,11/24.0087/2015,2000,g  9.0,4.0
# From MPC104791
C/2015 V4 (PANSTARRS),e,60.7618,179.9118,307.0524,18.50952,0.0123769,0.70481428,15.2620,01/14.0/2020,2000,g  8.5,4.0
# From MPC115881
C/2015 VL62 (Lemmon-Yeung-PANSTARRS),h,08/28.1036/2017,165.8152,95.0897,128.7238,1.001175,2.713699,2000,8.0,4.0
# From MPC102098
C/2015 WZ (PANSTARRS),e,134.5624,40.1377,66.6565,146.4848,0.0005559,0.99059756,0.0000,04/14.0931/2016,2000,g 15.0,4.0
# From MPC109142
C/2015 W1 (Gibbs),h,05/15.5029/2016,87.3731,114.3160,48.1979,1.000156,2.241082,2000,13.0,4.0
# From MPC101098
P/2015 W2 (Catalina),e,11.6069,294.2520,117.5722,7.301855,0.0499522,0.63332421,78.2710,01/14.0/2020,2000,g 13.0,4.0
# From MPC101098
P/2015 X1 (PANSTARRS),e,12.1519,161.7753,218.9930,3.630509,0.1424796,0.41892489,222.1318,01/14.0/2020,2000,g 16.0,4.0
# From MPC118840
C/2015 XY1 (Lemmon),h,04/28.7346/2018,148.8556,281.6254,196.2861,1.003962,7.926190,2000,5.5,4.0
# From MPC100281
C/2015 X2 (Catalina),e,72.1011,101.1009,42.3701,15.83567,0.0156405,0.87836178,23.2551,01/14.0/2020,2000,g 16.0,4.0
# From MPC 97498
P/2015 X3 (PANSTARRS),e,24.3824,77.3337,306.6704,5.012226,0.0878331,0.43814091,142.3671,01/14.0/2020,2000,g 15.0,4.0
# From MPC109142
C/2015 X4 (Elenin),e,29.5008,262.6213,176.2742,17.97050,0.0129379,0.81118959,19.8410,01/14.0/2020,2000,g 10.0,4.0
# From MPC118840
C/2015 X5 (PANSTARRS),h,12/30.2568/2017,124.3077,122.3414,27.7085,1.002955,6.799839,2000,7.5,4.0
# From MPC115881
P/2015 X6 (PANSTARRS),e,4.5648,106.9472,329.9003,2.752409,0.2158414,0.17230581,300.1596,01/14.0/2020,2000,g 16.0,4.0
# From MPC109143
C/2015 X7 (ATLAS),h,07/29.5970/2016,57.5628,139.9081,348.4632,1.000315,3.685233,2000,9.0,4.0
# From MPC107048
C/2015 X8 (NEOWISE),e,155.2158,191.1489,20.4297,19.76535,0.0112162,0.93996997,17.3055,01/14.0/2020,2000,g 16.0,4.0
# From MPC109143
C/2015 Y1 (LINEAR),e,71.1759,135.8112,24.6960,256.6916,0.0002397,0.99019684,0.0000,05/14.3681/2016,2000,g 12.0,4.0
# From MPC105543
C/2015 YG1 (NEOWISE),e,57.2735,350.5214,102.5282,17.01342,0.0140448,0.87854091,22.0394,01/14.0/2020,2000,g 13.0,4.0
# From MPC118840
C/2016 A1 (PANSTARRS),h,11/23.0680/2017,121.2045,128.1997,10.2937,1.002027,5.325945,2000,6.0,4.0
# From MPC100282
P/2016 A2 (Christensen),e,26.4064,291.6156,141.6531,4.748385,0.0952544,0.27148953,158.7341,01/14.0/2020,2000,g 11.5,4.0
# From MPC115881
P/2016 A3 (PANSTARRS),e,8.5138,187.3490,340.7142,7.886832,0.0444990,0.38834981,44.0476,01/14.0/2020,2000,g 10.0,4.0
# From MPC109143
C/2016 A5 (PANSTARRS),e,40.2397,136.1657,321.5486,673.3711,0.0000564,0.99562656,0.0000,06/26.8463/2015,2000,g 13.5,4.0
# From MPC109143
C/2016 A6 (PANSTARRS),e,120.9356,300.3652,141.0797,207.4215,0.0003299,0.98839507,0.0000,11/06.2909/2015,2000,g 15.0,4.0
# From MPC102098
P/2016 A7 (PANSTARRS),e,16.6303,221.4743,352.6260,5.030094,0.0873655,0.56577601,123.9376,01/14.0/2020,2000,g 16.0,4.0
# From MPC106345
C/2016 A8 (LINEAR),e,148.2431,111.3376,130.3559,34.28119,0.0049104,0.94502332,6.0514,01/14.0/2020,2000,g 12.0,4.0
# From MPC107048
C/2016 B1 (NEOWISE),e,50.4692,231.9711,8.6616,439.6544,0.0001069,0.99269410,0.0000,12/04.8344/2016,2000,g  9.5,4.0
# From MPC109143
P/2016 BA14 (PANSTARRS),e,18.8983,180.5377,351.9114,3.023981,0.1874284,0.66530153,262.4782,01/14.0/2020,2000,g 21.0,4.0
# From MPC110494
C/2016 C1 (PANSTARRS),h,02/19.3621/2016,56.2112,181.7972,328.7839,1.002723,8.467119,2000,5.5,4.0
# From MPC101098
C/2016 C2 (NEOWISE),e,38.0981,24.4212,214.5269,65.86686,0.0018438,0.97623732,0.0000,04/19.6300/2016,2000,g 16.0,4.0
# From MPC110494
C/2016 E1 (PANSTARRS),h,06/03.9092/2017,131.8922,233.0534,47.4514,1.005314,8.179625,2000,6.5,4.0
# From MPC 99821
C/2016 E2 (Kowalski),e,135.9158,186.8143,321.9096,139.4036,0.0005988,0.99227878,0.0000,02/06.7016/2016,2000,g 20.0,4.0
# From MPC102098
P/2016 G1 (PANSTARRS),e,10.9691,204.0595,111.2990,2.582317,0.2375143,0.21088299,257.0374,01/14.0/2020,2000,g 14.0,4.0
# From MPEC 2017-D91
P/2016 J1-A (PANSTARRS),e,14.3249,199.8346,46.8462,3.174337,0.1742708,0.22822432,226.1384,01/14.0/2020,2000,g 16.5,4.0
# From MPEC 2017-A77
P/2016 J1-B (PANSTARRS),e,14.3276,199.8394,46.7374,3.173966,0.1743013,0.22807554,226.2527,01/14.0/2020,2000,g 17.0,4.0
# From MPC101099
C/2016 J2 (Denneau),e,130.3404,186.3295,318.6160,623.3549,0.0000633,0.99755967,0.0000,04/12.0355/2016,2000,g 17.0,4.0
# From MPC102099
C/2016 KA (Catalina),e,104.6758,317.5125,63.1829,4842,0.0000029,0.99888354,0.0000,02/02.0462/2016,2000,g  8.5,4.0
# From MPC104792
C/2016 K1 (LINEAR),e,90.9065,325.6368,18.2666,14159,0.0000006,0.99983805,0.0000,07/13.2665/2016,2000,g 13.0,4.0
# From MPC118840
C/2016 M1 (PANSTARRS),e,91.0005,92.2029,209.8601,3171,0.0000055,0.99930270,0.0000,08/10.2504/2018,2000,g  5.0,4.0
# From MPC115881
C/2016 N4 (MASTER),e,72.5834,354.0064,55.9415,2400,0.0000084,0.99866733,0.0000,09/16.4643/2017,2000,g  8.5,4.0
# From MPC118092
C/2016 N6 (PANSTARRS),e,105.8403,298.9856,162.7789,1905,0.0000119,0.99859942,0.0000,07/18.1424/2018,2000,g  7.0,4.0
# From MPC102099
P/2016 P1 (PANSTARRS),e,24.4532,319.5656,270.0342,3.195108,0.1725741,0.28940704,271.4652,01/14.0/2020,2000,g 15.0,4.0
# From MPC102099
C/2016 P4 (PANSTARRS),e,29.8820,320.7441,356.1316,388.1683,0.0001289,0.98482184,0.0000,10/17.7260/2016,2000,g 10.5,4.0
# From MPC118093
C/2016 Q2 (PANSTARRS),e,109.3906,322.3011,84.4813,11704,0.0000008,0.99939482,0.0000,05/11.3122/2021,2000,g  6.0,4.0
# From MPC102955
C/2016 Q4 (Kowalski),e,7.2577,271.2845,99.3893,16.88339,0.0142074,0.58033189,10.1932,01/14.0/2020,2000,g  7.0,4.0
# From MPC117069
C/2016 R2 (PANSTARRS),e,58.2249,80.5694,33.1911,589.3878,0.0000689,0.99558350,0.0000,05/09.4403/2018,2000,g  7.0,4.0
# From MPC102099
C/2016 R3 (Borisov),e,53.0443,78.6443,118.1862,200.3175,0.0003476,0.99774885,0.0000,10/10.6043/2016,2000,g 18.0,4.0
# From MPC109144
P/2016 R4 (Gibbs),e,10.8671,168.2918,173.9923,5.331821,0.0800554,0.47583292,101.8333,01/14.0/2020,2000,g 12.5,4.0
# From MPC105543
P/2016 S1 (PANSTARRS),e,94.6477,227.5166,273.2673,8.280627,0.0413627,0.71027684,42.7508,01/14.0/2020,2000,g 12.0,4.0
# From MPC105238
C/2016 T1 (Matheny),e,129.8456,56.2684,137.3774,123.1677,0.0007210,0.98130656,0.0000,02/01.3018/2017,2000,g 14.5,4.0
# From MPC107685
C/2016 T2 (Matheny),e,81.3560,339.1397,92.2576,99.19034,0.0009977,0.98077101,0.0000,12/28.9801/2016,2000,g 14.5,4.0
# From MPC110082
C/2016 T3 (PANSTARRS),e,22.6772,271.7421,194.6914,135.0336,0.0006281,0.98037010,0.0000,09/06.6908/2017,2000,g 10.5,4.0
# From MPC103847
C/2016 U1 (NEOWISE),h,01/14.0332/2017,46.4090,61.4497,162.8286,1.000392,0.321348,2000,17.0,4.0
# From MPC106345
C/2016 VZ18 (PANSTARRS),e,24.0085,98.9249,36.4022,173.4087,0.0004316,0.99473705,0.0000,03/06.5555/2017,2000,g 19.5,4.0
# From MPC106345
P/2016 WM48 (Lemmon),e,117.4237,59.9018,36.0969,8.173025,0.0421823,0.78421261,44.4397,01/14.0/2020,2000,g 15.0,4.0
# From MPC118840
C/2016 X1 (Lemmon),e,26.4549,256.4234,224.5345,1476,0.0000174,0.99487407,0.0000,04/29.3341/2019,2000,g  6.0,4.0
# From MPC108594
C/2017 A1 (PANSTARRS),e,49.7942,121.0406,2.0718,77.59762,0.0014419,0.97045933,0.0000,05/16.6102/2017,2000,g 13.0,4.0
# From MPC108594
C/2017 A3 (Elenin),e,98.5372,97.9077,304.0623,43.49545,0.0034359,0.91146451,3.7048,01/14.0/2020,2000,g  9.5,4.0
# From MPC114598
C/2017 AB5 (PANSTARRS),e,32.4333,42.6661,78.3649,3081,0.0000058,0.99700930,0.0000,02/16.6442/2018,2000,g  5.5,4.0
# From MPC118840
C/2017 B3 (LINEAR),h,02/02.6158/2019,54.1770,2.1788,284.7724,1.001987,3.921592,2000,6.0,4.0
# From MPC103847
P/2017 B4 (PANSTARRS),e,20.0584,121.4578,11.0197,4.410520,0.1064068,0.36495152,359.9130,01/05.0/2017,2000,g 14.5,4.0
# From MPC104793
C/2017 C1 (NEOWISE),e,65.7409,357.4815,110.1377,20.62924,0.0105191,0.92723077,11.4709,01/14.0/2020,2000,g 18.0,4.0
# From MPC107685
C/2017 C2 (PANSTARRS),e,118.5896,249.8146,138.6719,97.59869,0.0010222,0.97514350,0.0000,01/21.6176/2017,2000,g 14.0,4.0
# From MPC104793
P/2017 D1 (Fuls),e,20.7619,82.1763,8.1126,4.829360,0.0928688,0.43699425,120.4226,01/14.0/2020,2000,g 14.0,4.0
# From MPC112391
C/2017 D2 (Barros),e,31.2565,330.9894,334.4369,2724,0.0000069,0.99908682,0.0000,07/14.7801/2017,2000,g 11.0,4.0
# From MPC114598
C/2017 D3 (ATLAS),h,04/27.1811/2017,125.5746,186.6433,340.8452,1.001903,4.973896,2000,8.0,4.0
# From MPC110495
P/2017 D4 (PANSTARRS),e,10.5301,264.9373,212.3298,7.570933,0.0473129,0.62889734,57.9345,01/14.0/2020,2000,g 13.0,4.0
# From MPC104794
C/2017 D5 (PANSTARRS),e,131.0596,92.7362,287.8011,114.9795,0.0007994,0.98117938,0.0000,01/09.2623/2017,2000,g 16.0,4.0
# From MPC106346
C/2017 E1 (Borisov),h,04/10.4394/2017,14.5640,142.6219,152.5990,1.002951,0.900538,2000,14.0,4.0
# From MPC109144
C/2017 E2 (Tsuchinshan),e,79.0323,11.5714,89.3923,21.54916,0.0098528,0.89087641,13.2264,01/14.0/2020,2000,g 11.5,4.0
# From MPC115882
C/2017 E3 (PANSTARRS),h,06/08.2059/2017,70.6238,220.7274,334.5119,1.007187,5.936428,2000,6.5,4.0
